[Satellite]
VERSION=1.1
NAME=Taurus 1
NICKNAME=Taurus 1
TLE1=1 44530U 19059C   25178.81413886  .00003703  00000-0  68475-3 0  9998
TLE2=2 44530  98.6093 319.0756 0008310 346.0931  14.0041 14.66014990306618
STATUS=0
